PERSEUS-M1              
1 40039U 14033AF  26136.59076436  .00001503  00000+0  14092-3 0  9992
2 40039  97.9633  80.2103 0012784  48.1314 312.0994 14.95518502645915
POLYITAN-1              
1 40042U 14033AJ  26136.77954166  .00015489  00000+0  50182-3 0  9999
2 40042  98.0960 160.0968 0005539 248.8269 111.2379 15.32106761648784
TIGRISAT                
1 40043U 14033AK  26136.85267450  .00001347  00000+0  16080-3 0  9999
2 40043  97.7796 287.5928 0049613 175.8470 184.3166 14.85017607640978
AEROCUBE 6A             
1 40045U 14033AM  26136.69396573  .00004759  00000+0  40415-3 0  9991
2 40045  97.7220 303.9919 0040234 119.7599 240.7635 14.97740215641907
AEROCUBE 6B             
1 40046U 14033AN  26136.72668207  .00004903  00000+0  40180-3 0  9992
2 40046  97.7170 303.7499 0038309 113.0826 247.4442 14.99159381642049
CANX-4                  
1 40055U 14034C   26136.74020308  .00000585  00000+0  82402-4 0  9995
2 40055  98.3163  10.8937 0014044 110.0844 250.1880 14.81202045639879
CANX-5                  
1 40056U 14034D   26136.87410483  .00000573  00000+0  80821-4 0  9997
2 40056  98.3165  11.0742 0014046 109.8709 250.4017 14.81219152630702
UKUBE-1                 
1 40074U 14037F   26136.82606347  .00005949  00000+0  34123-3 0  9996
2 40074  98.4239 136.8181 0000303 110.0067 250.1193 15.13010183643817
BRITE-PL2 (HEWELIUSZ)   
1 40119U 14049B   26136.77182169  .00001108  00000+0  10814-3 0  9998
2 40119  97.9062 248.5388 0013456 208.8593 151.1884 14.94464804636751
AEROCUBE 5C             
1 40965U 15058B   26136.65402519  .00002220  00000+0  20460-3 0  9993
2 40965  64.7685   0.6754 0129875  75.6672 285.8819 14.91263748360958
AEROCUBE 7              
1 40966U 15058C   26136.60600014  .00003281  00000+0  27028-3 0  9994
2 40966  64.7628 343.7167 0119653  74.3672 287.0608 14.95467313361234
FOX-1A (AO-85)          
1 40967U 15058D   26136.69130713  .00002304  00000+0  21481-3 0  9990
2 40967  64.7768  16.8492 0129119  68.9461 292.5402 14.90772442108871
SINOD-D 1               
1 40968U 15058E   26136.58771815  .00003216  00000+0  26527-3 0  9992
2 40968  64.7762 357.8510 0117617  65.7654 295.5697 14.95645120111931
SNAP-3 ALICE            
1 40970U 15058G   26136.82125713  .00058808  00000+0  88600-3 0  9999
2 40970  64.7529 211.7806 0033170  28.2061 332.0869 15.53807330112003
LMRST-SAT               
1 40971U 15058H   26136.63865990  .00002319  00000+0  21727-3 0  9990
2 40971  64.7774  13.2916 0130897  70.9923 290.5317 14.90397863108857
SNAP-3 EDDIE            
1 40972U 15058J   26136.57799557  .00069803  00000+0  10062-2 0  9999
2 40972  64.7446 203.5651 0033503  32.1008 328.2166 15.54937011114106
PROPCUBE 3              
1 40973U 15058K   26136.61744396  .00002794  00000+0  23953-3 0  9996
2 40973  64.7692 351.1555 0123036  72.4933 288.9582 14.94030179110087
BISONSAT                
1 40974U 15058L   26136.82752742  .00009298  00000+0  46125-3 0  9996
2 40974  64.7599 274.9735 0078700  60.6207 300.2746 15.15522919110864
SNAP-3 JIMI             
1 40975U 15058M   26136.49892713  .00004677  00000+0  32880-3 0  9992
2 40975  64.7652 320.0062 0105053  68.5179 292.7101 15.01957836109467
PROPCUBE 1 (FLORA)      
1 40976U 15058N   26136.69889397  .00001902  00000+0  18815-3 0  9999
2 40976  64.7749  32.8124 0129695  73.2710 288.2587 14.89030381111579
SINOD-D 3               
1 40977U 15058P   26136.64371463  .00003061  00000+0  26575-3 0  9995
2 40977  64.7738  14.3013 0118163  70.7372 290.6479 14.93759866110043
HORYU-4                 
1 41340U 16012D   26136.85064051  .00166597  00000+0  87779-3 0  9993
2 41340  30.9885 305.8839 0004970  58.9439 301.1705 15.79065819565836
RAVAN                   
1 41849U 16067B   26136.60186740  .00041771  00000+0  70185-3 0  9999
2 41849  97.9939  22.6019 0007210 110.4767 249.7258 15.51633919522795
CELTEE 1                
1 41850U 16067C   26136.59814610  .00003790  00000+0  18302-3 0  9995
2 41850  98.0712   1.0129 0001598  56.1474 303.9911 15.19349073521084
OPTICUBE 04             
1 41851U 16067D   26136.52765175  .00001621  00000+0  10534-3 0  9990
2 41851  98.0730 347.1576 0014670 220.8677 139.1451 15.09515933520395
AEROCUBE 8D             
1 41852U 16067E   26136.57717693  .00006031  00000+0  25290-3 0  9993
2 41852  98.0722   4.3497 0002156 225.4719 134.6340 15.23925564521259
AEROCUBE 8C             
1 41853U 16067F   26136.86981341  .00005679  00000+0  23657-3 0  9991
2 41853  98.0592   1.9329 0005847 154.6079 205.5445 15.24166545521299
CORVUS BC2              
1 42846U 17042X   26136.70467611  .00002102  00000+0  14775-3 0  9999
2 42846  97.4038 299.2898 0012137 212.9932 147.0540 15.06081067482320
CORVUS BC1              
1 42847U 17042Y   26136.70286262  .00001971  00000+0  13820-3 0  9994
2 42847  97.4068 300.0815 0011680 187.7979 172.3069 15.06251931482355
MAKERSAT 0              
1 43016U 17073D   26136.62058351  .00022402  00000+0  62457-3 0  9996
2 43016  97.4674  18.9198 0111103  26.3633 334.3202 15.30697756461635
SIRION PATHFINDER-2     
1 43759U 18099B   26136.79612492  .00003551  00000+0  19762-3 0  9994
2 43759  97.4275 186.6029 0010037  56.3949 303.8240 15.14240910407876
